STARLINK-36515          
1 67430U 26005AC  26035.50002314  .00138966  00000+0  23406-2 0  9993
2 67430  43.0001  68.2827 0001507 274.9492 225.1831 15.50484962  4777
STARLINK-36443          
1 67431U 26005AD  26035.50002314  .00016043  00000+0  27899-3 0  9996
2 67431  43.0001  68.2668 0001074 269.2246 236.6362 15.50551671  4806
STARLINK-36460          
1 67432U 26005AE  26035.50002314  .00163179  00000+0  27391-2 0  9996
2 67432  43.0001  68.2624 0001290 272.8412 234.9518 15.50482649  4851
YAOGAN-50 01            
1 67433U 26006A   26035.48644447  .00000349  00000+0  14495-3 0  9995
2 67433 142.0319 294.4931 0000684 261.8891  98.1750 13.83254063  3053
CZ-6A R/B               
1 67434U 26006B   26035.22829708  .00001690  00000+0  19783-3 0  9998
2 67434 142.0437 306.6001 0203505 240.4791 117.5507 14.62299143  3173
HULIANWANG DIGUI-137    
1 67435U 26007A   26033.98075632 -.00000001  00000+0  13502-3 0  9999
2 67435  50.0076 213.7063 0000216 306.0341  54.0533 13.80162070  2834
HULIANWANG DIGUI-138    
1 67436U 26007B   26034.78230556 -.00000008  00000+0  13123-3 0  9993
2 67436  50.0059 210.6149 0000934 172.2090 187.8819 13.78693618  2946
HULIANWANG DIGUI-139    
1 67437U 26007C   26034.77955786  .00000022  00000+0  15986-3 0  9996
2 67437  49.9747 210.6519 0001614 314.9571  45.1191 13.78894093  2943
HULIANWANG DIGUI-140    
1 67438U 26007D   26034.64014697  .00000015  00000+0  15324-3 0  9998
2 67438  50.0036 211.1889 0000238   5.1735 354.9161 13.78795905  2924
HULIANWANG DIGUI-141    
1 67439U 26007E   26034.77429666 -.00000002  00000+0  13519-3 0  9990
2 67439  49.9944 210.5580 0004776 318.2876  41.7653 13.79539805  2941
HULIANWANG DIGUI-142    
1 67440U 26007F   26034.04729541 -.00000143  00000+0 -48778-6 0  9992
2 67440  50.0102 213.4074 0000305 327.1572  32.9304 13.80500213  2845
HULIANWANG DIGUI-143    
1 67441U 26007G   26034.04456569  .00000005  00000+0  13983-3 0  9992
2 67441  50.0106 213.3804 0000977 201.1601 158.9253 13.80721705  2842
