CCSDS_OMM_VERS = 2.0
CREATION_DATE  = 
ORIGINATOR     = 

OBJECT_NAME    = STARLINK-36515
OBJECT_ID      = 2026-005AC
CENTER_NAME    = EARTH
REF_FRAME      = TEME
TIME_SYSTEM    = UTC
MEAN_ELEMENT_THEORY = SGP/SGP4

EPOCH          = 2026-02-04T12:00:01.999296
MEAN_MOTION    = 15.50484962
ECCENTRICITY   = .0001507
INCLINATION    = 43.0001
RA_OF_ASC_NODE = 68.2827
ARG_OF_PERICENTER = 274.9492
MEAN_ANOMALY   = 225.1831

EPHEMERIS_TYPE = 0
CLASSIFICATION_TYPE = U
NORAD_CAT_ID   = 67430
ELEMENT_SET_NO = 999
REV_AT_EPOCH   = 477
BSTAR          = .23406E-2
MEAN_MOTION_DOT = .138966E-2
MEAN_MOTION_DDOT = 0

CCSDS_OMM_VERS = 2.0
CREATION_DATE  = 
ORIGINATOR     = 

OBJECT_NAME    = STARLINK-36443
OBJECT_ID      = 2026-005AD
CENTER_NAME    = EARTH
REF_FRAME      = TEME
TIME_SYSTEM    = UTC
MEAN_ELEMENT_THEORY = SGP/SGP4

EPOCH          = 2026-02-04T12:00:01.999296
MEAN_MOTION    = 15.50551671
ECCENTRICITY   = .0001074
INCLINATION    = 43.0001
RA_OF_ASC_NODE = 68.2668
ARG_OF_PERICENTER = 269.2246
MEAN_ANOMALY   = 236.6362

EPHEMERIS_TYPE = 0
CLASSIFICATION_TYPE = U
NORAD_CAT_ID   = 67431
ELEMENT_SET_NO = 999
REV_AT_EPOCH   = 480
BSTAR          = .27899E-3
MEAN_MOTION_DOT = .16043E-3
MEAN_MOTION_DDOT = 0

CCSDS_OMM_VERS = 2.0
CREATION_DATE  = 
ORIGINATOR     = 

OBJECT_NAME    = STARLINK-36460
OBJECT_ID      = 2026-005AE
CENTER_NAME    = EARTH
REF_FRAME      = TEME
TIME_SYSTEM    = UTC
MEAN_ELEMENT_THEORY = SGP/SGP4

EPOCH          = 2026-02-04T12:00:01.999296
MEAN_MOTION    = 15.50482649
ECCENTRICITY   = .000129
INCLINATION    = 43.0001
RA_OF_ASC_NODE = 68.2624
ARG_OF_PERICENTER = 272.8412
MEAN_ANOMALY   = 234.9518

EPHEMERIS_TYPE = 0
CLASSIFICATION_TYPE = U
NORAD_CAT_ID   = 67432
ELEMENT_SET_NO = 999
REV_AT_EPOCH   = 485
BSTAR          = .27391E-2
MEAN_MOTION_DOT = .163179E-2
MEAN_MOTION_DDOT = 0

CCSDS_OMM_VERS = 2.0
CREATION_DATE  = 
ORIGINATOR     = 

OBJECT_NAME    = YAOGAN-50 01
OBJECT_ID      = 2026-006A
CENTER_NAME    = EARTH
REF_FRAME      = TEME
TIME_SYSTEM    = UTC
MEAN_ELEMENT_THEORY = SGP/SGP4

EPOCH          = 2026-02-04T11:40:28.802208
MEAN_MOTION    = 13.83254063
ECCENTRICITY   = .0000684
INCLINATION    = 142.0319
RA_OF_ASC_NODE = 294.4931
ARG_OF_PERICENTER = 261.8891
MEAN_ANOMALY   = 98.1750

EPHEMERIS_TYPE = 0
CLASSIFICATION_TYPE = U
NORAD_CAT_ID   = 67433
ELEMENT_SET_NO = 999
REV_AT_EPOCH   = 305
BSTAR          = .14495E-3
MEAN_MOTION_DOT = .349E-5
MEAN_MOTION_DDOT = 0

CCSDS_OMM_VERS = 2.0
CREATION_DATE  = 
ORIGINATOR     = 

OBJECT_NAME    = CZ-6A R/B
OBJECT_ID      = 2026-006B
CENTER_NAME    = EARTH
REF_FRAME      = TEME
TIME_SYSTEM    = UTC
MEAN_ELEMENT_THEORY = SGP/SGP4

EPOCH          = 2026-02-04T05:28:44.867712
MEAN_MOTION    = 14.62299143
ECCENTRICITY   = .0203505
INCLINATION    = 142.0437
RA_OF_ASC_NODE = 306.6001
ARG_OF_PERICENTER = 240.4791
MEAN_ANOMALY   = 117.5507

EPHEMERIS_TYPE = 0
CLASSIFICATION_TYPE = U
NORAD_CAT_ID   = 67434
ELEMENT_SET_NO = 999
REV_AT_EPOCH   = 317
BSTAR          = .19783E-3
MEAN_MOTION_DOT = .169E-4
MEAN_MOTION_DDOT = 0

CCSDS_OMM_VERS = 2.0
CREATION_DATE  = 
ORIGINATOR     = 

OBJECT_NAME    = HULIANWANG DIGUI-137
OBJECT_ID      = 2026-007A
CENTER_NAME    = EARTH
REF_FRAME      = TEME
TIME_SYSTEM    = UTC
MEAN_ELEMENT_THEORY = SGP/SGP4

EPOCH          = 2026-02-02T23:32:17.346048
MEAN_MOTION    = 13.80162070
ECCENTRICITY   = .00002161
INCLINATION    = 50.0076
RA_OF_ASC_NODE = 213.7063
ARG_OF_PERICENTER = 306.0341
MEAN_ANOMALY   = 54.0533

EPHEMERIS_TYPE = 0
CLASSIFICATION_TYPE = U
NORAD_CAT_ID   = 67435
ELEMENT_SET_NO = 999
REV_AT_EPOCH   = 283
BSTAR          = .13501688E-3
MEAN_MOTION_DOT = -.1E-7
MEAN_MOTION_DDOT = 0

CCSDS_OMM_VERS = 2.0
CREATION_DATE  = 
ORIGINATOR     = 

OBJECT_NAME    = HULIANWANG DIGUI-138
OBJECT_ID      = 2026-007B
CENTER_NAME    = EARTH
REF_FRAME      = TEME
TIME_SYSTEM    = UTC
MEAN_ELEMENT_THEORY = SGP/SGP4

EPOCH          = 2026-02-03T18:46:31.200384
MEAN_MOTION    = 13.78693618
ECCENTRICITY   = .00009345
INCLINATION    = 50.0059
RA_OF_ASC_NODE = 210.6149
ARG_OF_PERICENTER = 172.2090
MEAN_ANOMALY   = 187.8819

EPHEMERIS_TYPE = 0
CLASSIFICATION_TYPE = U
NORAD_CAT_ID   = 67436
ELEMENT_SET_NO = 999
REV_AT_EPOCH   = 294
BSTAR          = .13122564E-3
MEAN_MOTION_DOT = -.8E-7
MEAN_MOTION_DDOT = 0

CCSDS_OMM_VERS = 2.0
CREATION_DATE  = 
ORIGINATOR     = 

OBJECT_NAME    = HULIANWANG DIGUI-139
OBJECT_ID      = 2026-007C
CENTER_NAME    = EARTH
REF_FRAME      = TEME
TIME_SYSTEM    = UTC
MEAN_ELEMENT_THEORY = SGP/SGP4

EPOCH          = 2026-02-03T18:42:33.799104
MEAN_MOTION    = 13.78894093
ECCENTRICITY   = .00016145
INCLINATION    = 49.9747
RA_OF_ASC_NODE = 210.6519
ARG_OF_PERICENTER = 314.9571
MEAN_ANOMALY   = 45.1191

EPHEMERIS_TYPE = 0
CLASSIFICATION_TYPE = U
NORAD_CAT_ID   = 67437
ELEMENT_SET_NO = 999
REV_AT_EPOCH   = 294
BSTAR          = .1598634E-3
MEAN_MOTION_DOT = .22E-6
MEAN_MOTION_DDOT = 0

CCSDS_OMM_VERS = 2.0
CREATION_DATE  = 
ORIGINATOR     = 

OBJECT_NAME    = HULIANWANG DIGUI-140
OBJECT_ID      = 2026-007D
CENTER_NAME    = EARTH
REF_FRAME      = TEME
TIME_SYSTEM    = UTC
MEAN_ELEMENT_THEORY = SGP/SGP4

EPOCH          = 2026-02-03T15:21:48.698208
MEAN_MOTION    = 13.78795905
ECCENTRICITY   = .00002382
INCLINATION    = 50.0036
RA_OF_ASC_NODE = 211.1889
ARG_OF_PERICENTER = 5.1735
MEAN_ANOMALY   = 354.9161

EPHEMERIS_TYPE = 0
CLASSIFICATION_TYPE = U
NORAD_CAT_ID   = 67438
ELEMENT_SET_NO = 999
REV_AT_EPOCH   = 292
BSTAR          = .15324095E-3
MEAN_MOTION_DOT = .15E-6
MEAN_MOTION_DDOT = 0

CCSDS_OMM_VERS = 2.0
CREATION_DATE  = 
ORIGINATOR     = 

OBJECT_NAME    = HULIANWANG DIGUI-141
OBJECT_ID      = 2026-007E
CENTER_NAME    = EARTH
REF_FRAME      = TEME
TIME_SYSTEM    = UTC
MEAN_ELEMENT_THEORY = SGP/SGP4

EPOCH          = 2026-02-03T18:34:59.231424
MEAN_MOTION    = 13.79539805
ECCENTRICITY   = .00047768
INCLINATION    = 49.9944
RA_OF_ASC_NODE = 210.5580
ARG_OF_PERICENTER = 318.2876
MEAN_ANOMALY   = 41.7653

EPHEMERIS_TYPE = 0
CLASSIFICATION_TYPE = U
NORAD_CAT_ID   = 67439
ELEMENT_SET_NO = 999
REV_AT_EPOCH   = 294
BSTAR          = .13519376E-3
MEAN_MOTION_DOT = -.2E-7
MEAN_MOTION_DDOT = 0

CCSDS_OMM_VERS = 2.0
CREATION_DATE  = 
ORIGINATOR     = 

OBJECT_NAME    = HULIANWANG DIGUI-142
OBJECT_ID      = 2026-007F
CENTER_NAME    = EARTH
REF_FRAME      = TEME
TIME_SYSTEM    = UTC
MEAN_ELEMENT_THEORY = SGP/SGP4

EPOCH          = 2026-02-03T01:08:06.323424
MEAN_MOTION    = 13.80500213
ECCENTRICITY   = .00003051
INCLINATION    = 50.0102
RA_OF_ASC_NODE = 213.4074
ARG_OF_PERICENTER = 327.1572
MEAN_ANOMALY   = 32.9304

EPHEMERIS_TYPE = 0
CLASSIFICATION_TYPE = U
NORAD_CAT_ID   = 67440
ELEMENT_SET_NO = 999
REV_AT_EPOCH   = 284
BSTAR          = -.48778E-6
MEAN_MOTION_DOT = -.143E-5
MEAN_MOTION_DDOT = 0

CCSDS_OMM_VERS = 2.0
CREATION_DATE  = 
ORIGINATOR     = 

OBJECT_NAME    = HULIANWANG DIGUI-143
OBJECT_ID      = 2026-007G
CENTER_NAME    = EARTH
REF_FRAME      = TEME
TIME_SYSTEM    = UTC
MEAN_ELEMENT_THEORY = SGP/SGP4

EPOCH          = 2026-02-03T01:04:10.475616
MEAN_MOTION    = 13.80721705
ECCENTRICITY   = .00009775
INCLINATION    = 50.0106
RA_OF_ASC_NODE = 213.3804
ARG_OF_PERICENTER = 201.1601
MEAN_ANOMALY   = 158.9253

EPHEMERIS_TYPE = 0
CLASSIFICATION_TYPE = U
NORAD_CAT_ID   = 67441
ELEMENT_SET_NO = 999
REV_AT_EPOCH   = 284
BSTAR          = .13982587E-3
MEAN_MOTION_DOT = .5E-7
MEAN_MOTION_DDOT = 0

